     3.03           N: GNSS NAV DATA    M: Mixed            RINEX VERSION / TYPE
RTKCONV 2.4.3 b34                       20230730 132436 UTC PGM / RUN BY / DATE 
format: RINEX                                               COMMENT             
log: C:\Users\xikun\Dropbox\dataset\tst_0517\2023-Jul-30_212COMMENT             
log: C:\Users\xikun\Dropbox\dataset\tst_0517\2023-Jul-30_212COMMENT             
log: C:\Users\xikun\Dropbox\dataset\tst_0517\2023-Jul-30_212COMMENT             
log: C:\Users\xikun\Dropbox\dataset\tst_0517\2023-Jul-30_212COMMENT             
log: C:\Users\xikun\Dropbox\dataset\tst_0517\2023-Jul-30_212COMMENT             
                                                            END OF HEADER       
E13 2021 05 17 01 00 00  .416494905949D-03  .468958205602D-12  .000000000000D+00
      .220000000000D+02 -.720312500000D+02  .280011658305D-08  .508160875649D+00
     -.343844294548D-05  .212041544728D-03  .110454857349D-05  .544061027908D+04
      .900000000000D+05 -.223517417908D-07  .275942899441D+01  .186264514923D-07
      .995133375414D+00  .338281250000D+03 -.179502001322D+00 -.568523681293D-08
      .207151483467D-10  .517000000000D+03  .215800000000D+04  .000000000000D+00
      .296000000000D+01  .000000000000D+00  .465661287308D-09  .232830643654D-09
      .906640000000D+05  .000000000000D+00
E15 2021 05 17 01 20 00  .813897699118D-03 -.200373051484D-11  .000000000000D+00
      .240000000000D+02 -.810312500000D+02  .275297185048D-08  .173453569888D+01
     -.395439565182D-05  .207687146030D-03  .101141631603D-05  .544060931778D+04
      .912000000000D+05 -.130385160446D-07  .275938522829D+01  .186264514923D-07
      .995091301890D+00  .332500000000D+03 -.468288408492D+00 -.569166565215D-08
      .785746988308D-11  .258000000000D+03  .215800000000D+04  .000000000000D+00
      .296000000000D+01  .000000000000D+00  .628642737865D-08  .000000000000D+00
      .919000000000D+05  .000000000000D+00
E15 2021 05 17 01 30 00  .813896826003D-03 -.200373051484D-11  .000000000000D+00
      .250000000000D+02 -.821250000000D+02  .273975708787D-08  .180818224559D+01
     -.398233532906D-05  .207530451007D-03  .104866921902D-05  .544060975075D+04
      .918000000000D+05 -.149011611939D-07  .275938180214D+01  .186264514923D-07
      .995091301890D+00  .331093750000D+03 -.467549450534D+00 -.569095133668D-08
      .928610140172D-11  .517000000000D+03  .215800000000D+04  .000000000000D+00
      .296000000000D+01  .000000000000D+00  .628642737865D-08  .675208866596D-08
      .924850000000D+05  .000000000000D+00
E18 2020 02 12 08 20 00 -.999657786451D-03 -.142250655699D-10  .000000000000D+00
      .980000000000D+02  .198437500000D+02  .683171297311D-08 -.471293193950D+00
      .866129994392D-06  .166456933599D+00  .112131237984D-04  .528933010101D+04
      .289200000000D+06 -.227615237236D-05 -.230559399418D+01 -.325962901115D-06
      .882800460411D+00  .154531250000D+03  .166447532175D+01 -.116286986677D-07
      .283226081477D-09  .258000000000D+03  .209200000000D+04  .000000000000D+00
      .296000000000D+01  .480000000000D+02 -.372529029846D-08  .000000000000D+00
      .290400000000D+06  .000000000000D+00
E18 2020 02 12 08 20 00 -.999658775982D-03 -.142250655699D-10  .000000000000D+00
      .980000000000D+02  .198437500000D+02  .683171297311D-08 -.471293193950D+00
      .866129994392D-06  .166456933599D+00  .112131237984D-04  .528933010101D+04
      .289200000000D+06 -.227615237236D-05 -.230559399418D+01 -.325962901115D-06
      .882800460411D+00  .154531250000D+03  .166447532175D+01 -.116286986677D-07
      .283226081477D-09  .517000000000D+03  .209200000000D+04  .000000000000D+00
      .296000000000D+01  .390000000000D+03 -.372529029846D-08 -.442378222942D-08
      .290365000000D+06  .000000000000D+00
E19 2021 05 17 01 40 00  .278716150206D-03  .954969436862D-11  .000000000000D+00
      .260000000000D+02 -.210312500000D+02  .334799654667D-08 -.140155385628D+01
     -.102445483208D-05  .314579345286D-03  .764243304730D-05  .544061244392D+04
      .924000000000D+05 -.111758708954D-07 -.141823867543D+01 -.707805156708D-07
      .960069597518D+00  .172656250000D+03 -.157450209286D+01 -.546522764867D-08
      .282868922730D-09  .258000000000D+03  .215800000000D+04  .000000000000D+00
      .296000000000D+01  .000000000000D+00 -.349245965481D-08  .000000000000D+00
      .931000000000D+05  .000000000000D+00
E19 2021 05 17 01 40 00  .278715742752D-03  .952127265919D-11  .000000000000D+00
      .260000000000D+02 -.210312500000D+02  .334799654667D-08 -.140155385628D+01
     -.102445483208D-05  .314579345286D-03  .764243304730D-05  .544061244392D+04
      .924000000000D+05 -.111758708954D-07 -.141823867543D+01 -.707805156708D-07
      .960069597518D+00  .172656250000D+03 -.157450209286D+01 -.546522764867D-08
      .282868922730D-09  .517000000000D+03  .215800000000D+04  .000000000000D+00
      .296000000000D+01  .000000000000D+00 -.349245965481D-08 -.372529029846D-08
      .930550000000D+05  .000000000000D+00
E21 2021 05 17 01 40 00 -.665315194055D-03 -.218847162614D-11  .000000000000D+00
      .260000000000D+02  .950000000000D+02  .263582400351D-08  .390984834293D+00
      .432133674622D-05  .958719756454D-04  .999681651592D-05  .544061504364D+04
      .924000000000D+05  .279396772385D-07  .676405451711D+00 -.838190317154D-07
      .977938473303D+00  .137125000000D+03  .150308869205D+01 -.523236080597D-08
     -.470019578813D-09  .258000000000D+03  .215800000000D+04  .000000000000D+00
      .296000000000D+01  .000000000000D+00  .256113708019D-08  .000000000000D+00
      .931000000000D+05  .000000000000D+00
E21 2021 05 17 01 40 00 -.665315252263D-03 -.218847162614D-11  .000000000000D+00
      .260000000000D+02  .950000000000D+02  .263582400351D-08  .390984834293D+00
      .432133674622D-05  .958719756454D-04  .999681651592D-05  .544061504364D+04
      .924000000000D+05  .279396772385D-07  .676405451711D+00 -.838190317154D-07
      .977938473303D+00  .137125000000D+03  .150308869205D+01 -.523236080597D-08
     -.470019578813D-09  .517000000000D+03  .215800000000D+04  .000000000000D+00
      .296000000000D+01  .000000000000D+00  .256113708019D-08  .279396772385D-08
      .930640000000D+05  .000000000000D+00
E24 2021 05 16 07 20 00 -.902674335521D-03 -.204778416446D-10  .000000000000D+00
      .440000000000D+02  .134343750000D+03  .276690093060D-08 -.313972278827D+01
      .637210905552D-05  .540417851880D-03  .904873013496D-05  .544060861778D+04
      .264000000000D+05  .931322574616D-07  .681533522321D+00 -.465661287308D-07
      .975890023725D+00  .152562500000D+03  .816649998099D+00 -.529200614758D-08
     -.336799754752D-09  .258000000000D+03  .215800000000D+04  .000000000000D+00
      .296000000000D+01  .000000000000D+00 -.325962901115D-08  .000000000000D+00
      .271000000000D+05  .000000000000D+00
E24 2021 05 16 07 20 00 -.902675616089D-03 -.204778416446D-10  .000000000000D+00
      .440000000000D+02  .134343750000D+03  .276690093060D-08 -.313972278827D+01
      .637210905552D-05  .540417851880D-03  .904873013496D-05  .544060861778D+04
      .264000000000D+05  .931322574616D-07  .681533522321D+00 -.465661287308D-07
      .975890023725D+00  .152562500000D+03  .816649998099D+00 -.529200614758D-08
     -.336799754752D-09  .517000000000D+03  .215800000000D+04  .000000000000D+00
      .296000000000D+01  .000000000000D+00 -.325962901115D-08 -.419095158577D-08
      .270850000000D+05  .000000000000D+00
E25 2021 05 16 16 50 00 -.534008373506D-03 -.117950094136D-11  .000000000000D+00
      .101000000000D+03  .992500000000D+02  .269261213326D-08  .232514163722D+01
      .438652932644D-05  .867396593094D-04  .100526958704D-04  .544061674309D+04
      .606000000000D+05 -.409781932831D-07  .676563764316D+00 -.931322574616D-08
      .977950976864D+00  .130718750000D+03 -.122394783921D+01 -.523450375238D-08
     -.215723272579D-09  .258000000000D+03  .215800000000D+04  .000000000000D+00
      .296000000000D+01  .000000000000D+00  .372529029846D-08  .000000000000D+00
      .613000000000D+05  .000000000000D+00
E25 2021 05 16 16 50 00 -.534008489922D-03 -.117950094136D-11  .000000000000D+00
      .101000000000D+03  .992500000000D+02  .269261213326D-08  .232514163722D+01
      .438652932644D-05  .867396593094D-04  .100526958704D-04  .544061674309D+04
      .606000000000D+05 -.409781932831D-07  .676563764316D+00 -.931322574616D-08
      .977950976864D+00  .130718750000D+03 -.122394783921D+01 -.523450375238D-08
     -.215723272579D-09  .517000000000D+03  .215800000000D+04  .000000000000D+00
      .296000000000D+01  .000000000000D+00  .372529029846D-08  .395812094212D-08
      .612850000000D+05  .000000000000D+00
E26 2021 05 17 01 40 00  .180230493425D-02 -.439399627794D-10  .000000000000D+00
      .260000000000D+02 -.693750000000D+02  .286011903050D-08  .877057044032D-01
     -.314228236675D-05  .685446429998D-04  .920146703720D-06  .544062002564D+04
      .924000000000D+05 -.651925802231D-07  .276436955696D+01 -.186264514923D-08
      .988372623858D+00  .336593750000D+03 -.280872548475D+00 -.573952478853D-08
      .310727242547D-10  .258000000000D+03  .215800000000D+04  .000000000000D+00
      .296000000000D+01  .000000000000D+00  .605359673500D-08  .000000000000D+00
      .931000000000D+05  .000000000000D+00
